[{"OBJECT_NAME":"STARLINK-30197","OBJECT_ID":"2023-105P","EPOCH":"2026-03-09T22:00:01.999584","MEAN_MOTION":15.26481001,"ECCENTRICITY":8.365e-5,"INCLINATION":42.9996,"RA_OF_ASC_NODE":258.3365,"ARG_OF_PERICENTER":285.5306,"MEAN_ANOMALY":275.8435,"EPHEMERIS_TYPE":0,"CLASSIFICATION_TYPE":"U","NORAD_CAT_ID":57443,"ELEMENT_SET_NO":999,"REV_AT_EPOCH":573,"BSTAR":0.0055921327,"MEAN_MOTION_DOT":0.00151669,"MEAN_MOTION_DDOT":0},{"OBJECT_NAME":"CZ-6A DEB","OBJECT_ID":"2023-168D","EPOCH":"2026-03-09T19:03:52.964928","MEAN_MOTION":15.28240044,"ECCENTRICITY":0.00013417,"INCLINATION":97.7802,"RA_OF_ASC_NODE":98.3362,"ARG_OF_PERICENTER":174.0661,"MEAN_ANOMALY":186.0594,"EPHEMERIS_TYPE":0,"CLASSIFICATION_TYPE":"U","NORAD_CAT_ID":58202,"ELEMENT_SET_NO":999,"REV_AT_EPOCH":12922,"BSTAR":0.0014474773,"MEAN_MOTION_DOT":0.00039923,"MEAN_MOTION_DDOT":0}]
